{
    "type": "FeatureCollection",
    "features": [{
        "id": "urn:ngsi-ld:Building:3009ef20-9f62-41f5-bd66-92f041b428b9",
        "type": "Feature",
        "geometry": {
            "type": "Point",
            "coordinates": [13.3986, 52.5547]
        },
        "properties": {
            "type": "Building",
            "name": {
                "type": "Property",
                "value": "Eiffel Tower"
            },
            "subCategory": {
                "type": "Property",
                "value": "tourism"
            },
            "location": {
                "type": "GeoProperty",
                "value": {
                    "type": "Point",
                    "coordinates": [13.3986, 52.5547]
                }
            },
            "@context": [
                "https://forge.etsi.org/rep/cim/ngsi-ld-test-suite/-/raw/develop/resources/jsonld-contexts/ngsi-ld-test-suite-compound.jsonld"
            ]
        }
    }, {
            "id": "urn:ngsi-ld:Building:3009ef20-9f62-41f5-bd66-92f041b428b9",
            "type": "Feature",
            "geometry": {
                "type": "Point",
                "coordinates": [13.3986, 52.5547]
            },
            "properties": {
                "type": "Building",
                "name": {
                    "type": "Property",
                    "value": "Eiffel Tower"
                },
                "subCategory": {
                    "type": "Property",
                    "value": "tourism"
                },
                "location": {
                    "type": "GeoProperty",
                    "value": {
                        "type": "Point",
                        "coordinates": [13.3986, 52.5547]
                    }
                },
                "@context": [
                    "https://forge.etsi.org/rep/cim/ngsi-ld-test-suite/-/raw/develop/resources/jsonld-contexts/ngsi-ld-test-suite-compound.jsonld"
                ]
            }
    }]
}
